#dP2024  9 23  6  0  0.00000000      96 __u+U IGS20 EXT  IAC
## 2333 108000.00000000   900.00000000 60576 0.2500000000000
+   54   G01G02G03G04G05G06G07G08G09G10G11G12G13G14G15G16G17
+        G18G19G20G21G22G23G24G25G26G27G28G29G30G31G32R01R02
+        R03R04R05R07R08R09R11R12R14R15R16R17R18R19R20R21R22
+        R24R25R26  0  0  0  0  0  0  0  0  0  0  0  0  0  0
+          0  0  0  0  0  0  0  0  0  0  0  0  0  0  0  0  0
++        11  8  9  8  8  8  9  8  9  8  8  8  8  7  8  8  8
++         8  9  8  9  8  8  7  8  8  8  8  7  8 10  8  7  7
++         9  9  9  9  8  8  8  9  9  8  8  9  9  9  9  8  8
++         8  8  8  0  0  0  0  0  0  0  0  0  0  0  0  0  0
++         0  0  0  0  0  0  0  0  0  0  0  0  0  0  0  0  0
%c M  cc GPS ccc cccc cccc cccc cccc ccccc ccccc ccccc ccccc
%c cc cc ccc ccc cccc cccc cccc cccc ccccc ccccc ccccc ccccc
%f  0.0000000  0.000000000  0.00000000000  0.000000000000000
%f  0.0000000  0.000000000  0.00000000000  0.000000000000000
%i    0    0    0    0      0      0      0      0         0
%i    0    0    0    0      0      0      0      0         0
/* IAC                                ULTRA-RAPID PREDICTION
/* S/V CLOCKS ARE ALIGNED TO GNSS TIME                      
/* G:C1WC2W R:C1PC2P E:C1XC5X C:C2IC6I J:C1CC2S             
/* PCV:IGS20_2317 OL/AL:FES2004  NONE     YN ORB:CoN CLK:CoN
*  2024 09 23 22 30  0.00000000
PG01  10149.132752 -14766.238897  19118.783797    189.695353
PG02 -17357.021921 -13300.737647 -14833.493155   -351.764966
PG03 -12617.237198 -21134.027123   9955.361180    548.005217
PG04 -10493.477391 -10882.125789  21851.741644    449.230024
PG05   4663.944361  25529.963707   5295.270390   -187.573770
PG06 -18737.356237   6868.905855  17648.574414     10.164362
PG07 -25941.121138  -6755.765880    107.979839    -34.467234
PG08   -642.662489 -18938.108667 -18546.844071    362.511969
PG09 -18146.413896   -395.483184  19316.873741    369.221804
PG10  12203.151407  -9206.651068 -21457.834937   -135.108840
PG11  -3851.274046  14618.421407  21873.000660   -737.744778
PG12   9658.245786  23766.742968   6683.121204   -540.239219
PG13  -9189.285511  19927.891958 -15018.586992    678.055062
PG14 -14716.641489   5077.766344 -21466.348078    502.294963
PG15   3485.650804  18916.004594 -18771.070935    207.747774
PG16   1457.428587 -24736.118441   8580.491343   -173.034170
PG17 -21907.043329  13147.668188  -7158.034013    617.715345
PG18  25937.982520   6049.688162  -1622.662300   -654.966683
PG19 -20059.858294  17037.504474    507.821076    541.902679
PG20  -1735.927835  21600.061484  15526.838889    370.336998
PG21 -12323.077045 -14885.701156 -18256.805235    101.164090
PG22 -11096.898139  14122.418432 -19257.063748    -64.748727
PG23  16027.929248   5350.031724 -20520.623376    326.750976
PG24  15075.006442  14841.602227 -16746.209408   -486.353549
PG25  15929.319603  14214.828048  15621.600722    499.629656
PG26   7997.320061 -17322.254610  18163.065357     72.096745
PG27   9741.236255 -21758.162444 -11541.690037    -33.988091
PG28  20349.443682  -6668.191974  15703.031662   -421.962249
PG29  16525.705092   4106.856585  20375.261069   -575.906872
PG30 -24554.192879   1468.298938 -10200.183155   -315.647411
PG31   9520.197497 -12809.960536  21053.776112   -224.316203
PG32  20731.357875 -14957.441473  -6592.738580   -594.202973
PR01   9487.341978 -23682.700667     43.956313     98.749466
PR02    720.478470 -19821.067325  16033.422072    -24.816415
PR03  -9612.533740  -5040.720955  23121.829074    108.118526
PR04 -14222.765573  11929.130974  17527.241777    256.083997
PR05 -11524.074669  22631.027600   2552.152160    138.095853
PR07   9778.095082   4594.999984 -23073.672620     91.499248
PR08  14168.184550 -12239.371196 -17250.014428     -6.421851
PR09  12053.284976  21142.909533  -7475.949917    210.827081
PR11  14396.128658   2578.001852  20906.101421     11.049243
PR12   1519.307961 -14657.228553  20845.023476     45.186812
PR14 -17752.379363 -15603.175423  -9608.106485     26.959621
PR15 -13663.029201  -1009.769807 -21496.513746     75.559594
PR16  -1499.331081  14431.983354 -20957.038245     29.394061
PR17 -22003.676750  -3370.076673 -12395.905350    124.647576
PR18 -24926.305135   4049.666661   3755.440069    163.522916
PR19 -17038.687297   8638.009709  16898.416876   -292.449547
PR20   5262.889572   9936.815329  22904.435043   -119.529087
PR21  21592.233493   3853.422112  13059.232776   -137.007401
PR22  24707.143642  -4045.969471  -4847.477098     39.489959
PR24  -6341.695477 -10034.963663 -22553.190530    -73.249888
PR25  22129.125994   4196.859268  12009.445458    -98.025904
PR26  14009.794582 -10904.213503 -18309.515227     39.694420
*  2024 09 23 22 45  0.00000000
PG01  10940.328964 -12562.836831  20233.567123    189.686598
PG02 -15478.627311 -13204.438580 -16777.714794   -351.757758
PG03 -12756.732727 -22140.011659   7286.819666    548.016872
PG04  -8733.933088 -12638.897786  21666.827169    449.236365
PG05   4187.942594  24868.417375   8041.735031   -187.574868
PG06 -20549.527546   6325.760777  15732.059141     10.140525
PG07 -25776.187253  -6971.986673   2910.507502    -34.463499
PG08    810.255034 -20361.941757 -16913.015831    362.523273
PG09 -16716.189523  -2190.036798  20443.549613    369.236393
PG10  12996.084551  -6809.345656 -21907.577094   -135.120184
PG11  -6247.766946  13953.016017  21747.895974   -737.748217
PG12   9568.041666  24444.395856   3914.644475   -540.241723
PG13 -10513.593501  20776.658357 -12779.749358    678.056853
PG14 -15408.820198   2707.600234 -21430.743103    502.302640
PG15   2244.025536  20467.039787 -17211.082156    207.751755
PG16   1973.418149 -23635.531438  11143.287913   -173.025050
PG17 -21324.912656  12286.240277  -9789.625114    617.704734
PG18  25914.354196   6248.185020   1247.072148   -654.968443
PG19 -20171.417003  16772.177784  -2381.271639    541.907095
PG20  -2751.670163  20024.815416  17375.646078    370.336620
PG21 -10117.916404 -14687.170644 -19595.139200    101.163420
PG22 -11688.337659  11855.739462 -20354.022222    -64.752007
PG23  16697.606067   7522.831013 -19288.815542    326.758496
PG24  13144.937160  14769.677881 -18363.668510   -486.353044
PG25  16282.296552  15906.960557  13557.070430    499.629660
PG26   8996.091768 -15350.079623  19448.307855     72.088850
PG27  10697.192168 -22445.024470  -9004.213234    -33.988749
PG28  21963.089709  -6172.088053  13591.995203   -421.974504
PG29  14829.630366   5784.435119  21241.500119   -575.904640
PG30 -25506.825426    970.323179  -7666.374343   -315.640930
PG31  11843.153005 -12174.225261  20280.308326   -224.315735
PG32  20290.907505 -14091.321702  -9264.838530   -594.199489
PR01   9282.574062 -23553.439863  -3160.530688     98.750524
PR02   1291.584708 -21556.729313  13555.316185    -24.816696
PR03  -8582.976672  -7671.089782  22795.752797    108.119131
PR04 -13257.164836   9862.222175  19462.791871    256.085547
PR05 -11162.821082  22228.142664   5725.873970    138.096319
PR07   8739.696531   7238.978531 -22815.935374     91.499951
PR08  13239.368828 -10173.252067 -19215.565736     -6.421898
PR09  11396.146785  20247.095283 -10410.321676    210.829033
PR11  16012.942816   4462.425310  19352.866573     11.048299
PR12   3129.544271 -12568.383524  21999.972515     45.187196
PR14 -18471.676047 -16310.203604  -6619.423642     26.959659
PR15 -15312.653376  -2987.069101 -20161.534179     75.559198
PR16  -3128.254983  12327.803465 -22092.204617     29.394394
PR17 -20303.389666  -3457.391725 -15001.559727    124.650570
PR18 -25160.538624   4287.042889    533.401006    163.524609
PR19 -18955.477696   8982.866452  14506.386611   -292.450763
PR20   2421.810031  10178.231762  23274.537914   -119.529588
PR21  19817.913123   3924.168633  15601.085398   -137.010350
PR22  25095.737540  -4233.060627  -1667.327400     39.481156
PR24  -3550.505005 -10409.105016 -22993.328129    -73.251328
PR25  20484.045291   4242.092711  14626.062114    -98.023359
PR26  13058.860615  -8728.432632 -20089.454097     39.710958
EOF
